NORAD_CAT_ID,OBJECT_NAME,OBJECT_TYPE,EPOCH,MEAN_MOTION,ECCENTRICITY,INCLINATION,RA_OF_ASC_NODE,ARG_OF_PERICENTER,MEAN_ANOMALY,BSTAR,MEAN_MOTION_DOT,MEAN_MOTION_DDOT,TLE_LINE0,TLE_LINE1,TLE_LINE2,SEMIMAJOR_AXIS,PERIOD,APOGEE,PERIGEE,DECAYED
55942.0,STARLINK-5917,PAYLOAD,2023-09-23 18:21:45,14.98336483,0.0003388,70.002,28.2844,274.6478,85.4295,7.269e-05,7.75e-06,0.0,0 STARLINK-5917,1 55942U 23037AE  23266.76510975  .00000775  00000-0  72690-4 0  9996,2 55942  70.0020  28.2844 0003388 274.6478  85.4295 14.98336483 29827,6950.173,96.107,574.393,569.683,0.0
55942.0,STARLINK-5917,PAYLOAD,2023-09-24 13:35:22,14.98335553,0.0003045,70.0028,26.2656,267.6925,92.3885,-0.00013926,-1.754e-05,0.0,0 STARLINK-5917,1 55942U 23037AE  23267.56623279 -.00001754  00000-0 -13926-3 0  9993,2 55942  70.0028  26.2656 0003045 267.6925  92.3885 14.98335553 29608,6950.176,96.107,574.157,569.924,0.0
55942.0,STARLINK-5917,PAYLOAD,2023-09-24 18:23:46,14.98339569,0.0003045,70.0027,25.7605,267.374,92.7071,-9.6933e-05,-1.25e-05,0.0,0 STARLINK-5917,1 55942U 23037AE  23267.76650825 -.00001250  00000-0 -96933-4 0  9993,2 55942  70.0027  25.7605 0003045 267.3740  92.7071 14.98339569 29979,6950.163,96.106,574.145,569.912,0.0
55942.0,STARLINK-5917,PAYLOAD,2023-09-25 08:48:59,14.98326433,0.0003042,70.0028,24.2448,267.2062,92.8749,-2.0421e-05,-3.37e-06,0.0,0 STARLINK-5917,1 55942U 23037AE  23268.36735305 -.00000337  00000-0 -20421-4 0  9991,2 55942  70.0028  24.2448 0003042 267.2062  92.8749 14.98326433 30063,6950.204,96.107,574.183,569.955,0.0
55942.0,STARLINK-5917,PAYLOAD,2023-09-25 13:37:23,14.98325566,0.0003108,70.0025,23.7401,267.4166,92.6637,-4.0938e-05,-5.81e-06,0.0,0 STARLINK-5917,1 55942U 23037AE  23268.56763481 -.00000581  00000-0 -40938-4 0  9995,2 55942  70.0025  23.7401 0003108 267.4166  92.6637 14.98325566 29757,6950.207,96.107,574.232,569.911,0.0
55942.0,STARLINK-5917,PAYLOAD,2023-09-25 16:49:39,14.98330651,0.0003016,70.0027,23.4039,265.51,94.5715,1.8515e-05,1.28e-06,0.0,0 STARLINK-5917,1 55942U 23037AE  23268.70114983  .00000128  00000-0  18515-4 0  9999,2 55942  70.0027  23.4039 0003016 265.5100  94.5715 14.98330651 29779,6950.191,96.107,574.152,569.96,0.0
55942.0,STARLINK-5917,PAYLOAD,2023-09-26 10:27:08,14.98322877,0.0002843,70.0041,21.5545,248.9297,111.1558,-3.38e-06,-1.33e-06,0.0,0 STARLINK-5917,1 55942U 23037AE  23269.43551592 -.00000133  00000-0 -33800-5 0  9994,2 55942  70.0041  21.5545 0002843 248.9297 111.1558 14.98322877 30229,6950.215,96.107,574.056,570.104,0.0
55942.0,STARLINK-5917,PAYLOAD,2023-09-26 13:39:24,14.98320837,0.00033,70.0021,21.215,264.5272,95.5511,-4.9462e-05,-6.83e-06,0.0,0 STARLINK-5917,1 55942U 23037AE  23269.56903920 -.00000683  00000-0 -49462-4 0  9994,2 55942  70.0021  21.2150 0003300 264.5272  95.5511 14.98320837 29903,6950.221,96.108,574.38,569.793,0.0
55942.0,STARLINK-5917,PAYLOAD,2023-09-26 16:51:40,14.98324277,0.0003131,70.0029,20.8798,259.1087,100.972,-5.662e-06,-1.61e-06,0.0,0 STARLINK-5917,1 55942U 23037AE  23269.70255627 -.00000161  00000-0 -56620-5 0  9990,2 55942  70.0029  20.8798 0003131 259.1087 100.9720 14.98324277 29927,6950.211,96.107,574.252,569.899,0.0
55942.0,STARLINK-5917,PAYLOAD,2023-09-27 08:53:01,14.98329244,0.0003199,70.0023,19.196,265.6551,94.4242,8.3035e-05,8.98e-06,0.0,0 STARLINK-5917,1 55942U 23037AE  23270.37015121  .00000898  00000-0  83035-4 0  9992,2 55942  70.0023  19.1960 0003199 265.6551  94.4242 14.98329244 30360,6950.195,96.107,574.284,569.837,0.0
55942.0,STARLINK-5917,PAYLOAD,2023-09-27 12:05:17,14.98330267,0.0003178,70.0022,18.8595,263.108,96.9717,8.5881e-05,9.32e-06,0.0,0 STARLINK-5917,1 55942U 23037AE  23270.50367022  .00000932  00000-0  85881-4 0  9997,2 55942  70.0022  18.8595 0003178 263.1080  96.9717 14.98330267 30042,6950.192,96.107,574.266,569.848,0.0
55942.0,STARLINK-5917,PAYLOAD,2023-09-27 16:53:40,14.98336037,0.0003136,70.0023,18.3538,264.575,95.5051,0.000124,1.387e-05,0.0,0 STARLINK-5917,1 55942U 23037AE  23270.70394518  .00001387  00000-0  12400-3 0  9990,2 55942  70.0023  18.3538 0003136 264.5750  95.5051 14.98336037 30416,6950.174,96.107,574.219,569.86,0.0
55942.0,STARLINK-5917,PAYLOAD,2023-09-28 12:07:18,14.9832826,0.0002978,70.0023,16.3341,260.0595,100.0228,3.9111e-05,3.74e-06,0.0,0 STARLINK-5917,1 55942U 23037AE  23271.50507144  .00000374  00000-0  39111-4 0  9994,2 55942  70.0023  16.3341 0002978 260.0595 100.0228 14.98328260 30537,6950.198,96.107,574.133,569.994,0.0
55942.0,STARLINK-5917,PAYLOAD,2023-09-28 13:43:26,14.98326465,0.0002975,70.0025,16.1663,259.9757,100.1067,2.8095e-05,2.42e-06,0.0,0 STARLINK-5917,1 55942U 23037AE  23271.57183304  .00000242  00000-0  28095-4 0  9992,2 55942  70.0025  16.1663 0002975 259.9757 100.1067 14.98326465 30209,6950.204,96.107,574.137,570.001,0.0
55942.0,STARLINK-5917,PAYLOAD,2023-09-28 16:55:42,14.98326774,0.0002996,70.0026,15.8298,261.2238,98.8582,4.4304e-05,4.36e-06,0.0,0 STARLINK-5917,1 55942U 23037AE  23271.70535262  .00000436  00000-0  44304-4 0  9997,2 55942  70.0026  15.8298 0002996 261.2238  98.8582 14.98326774 30223,6950.203,96.107,574.15,569.986,0.0
55942.0,STARLINK-5917,PAYLOAD,2023-09-29 12:09:19,14.98329892,0.0003077,70.0028,13.8111,263.7892,96.2916,-6.8802e-05,-9.14e-06,0.0,0 STARLINK-5917,1 55942U 23037AE  23272.50647374 -.00000914  00000-0 -68802-4 0  9996,2 55942  70.0028  13.8111 0003077 263.7892  96.2916 14.98329892 30688,6950.193,96.107,574.197,569.92,0.0
55942.0,STARLINK-5917,PAYLOAD,2023-09-29 13:45:27,14.98330224,0.0003143,70.0025,13.6422,265.6388,94.4412,-5.1804e-05,-7.11e-06,0.0,0 STARLINK-5917,1 55942U 23037AE  23272.57323299 -.00000711  00000-0 -51804-4 0  9999,2 55942  70.0025  13.6422 0003143 265.6388  94.4412 14.98330224 30359,6950.192,96.107,574.242,569.873,0.0
55942.0,STARLINK-5917,PAYLOAD,2023-09-29 16:57:43,14.98334459,0.0003109,70.0026,13.3059,265.3329,94.7475,-1.2676e-05,-2.44e-06,0.0,0 STARLINK-5917,1 55942U 23037AE  23272.70674891 -.00000244  00000-0 -12676-4 0  9996,2 55942  70.0026  13.3059 0003109 265.3329  94.7475 14.98334459 30713,6950.179,96.107,574.205,569.883,0.0
55942.0,STARLINK-5917,PAYLOAD,2023-09-30 16:59:43,14.98338607,0.0002864,70.0027,10.7797,265.8316,94.2516,0.0001224,1.368e-05,0.0,0 STARLINK-5917,1 55942U 23037AE  23273.70813985  .00001368  00000-0  12240-3 0  9998,2 55942  70.0027  10.7797 0002864 265.8316  94.2516 14.98338607 30868,6950.166,96.106,574.022,570.041,0.0
55942.0,STARLINK-5917,PAYLOAD,2023-10-01 12:13:20,14.98334549,0.0002898,70.0022,8.7603,263.0045,97.0784,3.0004e-05,2.65e-06,0.0,0 STARLINK-5917,1 55942U 23037AE  23274.50926197  .00000265  00000-0  30004-4 0  9991,2 55942  70.0022   8.7603 0002898 263.0045  97.0784 14.98334549 30984,6950.179,96.107,574.058,570.03,0.0
55942.0,STARLINK-5917,PAYLOAD,2023-10-01 15:25:36,14.98336957,0.00029,70.0023,8.424,262.7227,97.3603,4.8314e-05,4.84e-06,0.0,0 STARLINK-5917,1 55942U 23037AE  23274.64277885  .00000484  00000-0  48314-4 0  9995,2 55942  70.0023   8.4240 0002900 262.7227  97.3603 14.98336957 30664,6950.171,96.107,574.052,570.021,0.0
55942.0,STARLINK-5917,PAYLOAD,2023-10-01 23:26:17,14.98324723,0.000247,70.0032,7.5797,274.6201,85.4676,4.5403e-05,4.49e-06,0.0,0 STARLINK-5917,1 55942U 23037AE  23274.97658786  .00000449  00000-0  45403-4 0  9991,2 55942  70.0032   7.5797 0002470 274.6201  85.4676 14.98324723 31057,6950.209,96.107,573.791,570.358,0.0
55942.0,STARLINK-5917,PAYLOAD,2023-10-02 15:27:38,14.98322081,0.0002743,70.0026,5.9007,266.7568,93.3277,-0.00016606,-2.073e-05,0.0,0 STARLINK-5917,1 55942U 23037AE  23275.64419556 -.00002073  00000-0 -16606-3 0  9995,2 55942  70.0026   5.9007 0002743 266.7568  93.3277 14.98322081 31158,6950.217,96.108,573.989,570.176,0.0
55942.0,STARLINK-5917,PAYLOAD,2023-10-03 12:17:22,14.98335023,0.0002839,70.0023,3.7125,264.2998,95.7837,1.0364e-05,3.1e-07,0.0,0 STARLINK-5917,1 55942U 23037AE  23276.51206258  .00000031  00000-0  10364-4 0  9991,2 55942  70.0023   3.7125 0002839 264.2998  95.7837 14.98335023 31280,6950.177,96.107,574.016,570.069,0.0
55942.0,STARLINK-5917,PAYLOAD,2023-10-03 13:53:30,14.98337856,0.0002781,70.0019,3.5437,261.3851,98.6993,-5.5294e-05,-7.53e-06,0.0,0 STARLINK-5917,1 55942U 23037AE  23276.57882227 -.00000753  00000-0 -55294-4 0  9997,2 55942  70.0019   3.5437 0002781 261.3851  98.6993 14.98337856 30955,6950.169,96.106,573.966,570.101,0.0
55942.0,STARLINK-5917,PAYLOAD,2023-10-03 15:29:38,14.98336303,0.000308,70.0014,3.3743,268.6703,91.4103,7.8752e-08,-9.2e-07,0.0,0 STARLINK-5917,1 55942U 23037AE  23276.64558152 -.00000092  00000-0  78752-7 0  9994,2 55942  70.0014   3.3743 0003080 268.6703  91.4103 14.98336303 30968,6950.173,96.107,574.179,569.898,0.0
55942.0,STARLINK-5917,PAYLOAD,2023-10-04 10:43:15,14.98325013,0.0003025,70.0016,1.3547,272.6591,87.4221,0.00015103,1.709e-05,0.0,0 STARLINK-5917,1 55942U 23037AE  23277.44670520  .00001709  00000-0  15103-3 0  9999,2 55942  70.0016   1.3547 0003025 272.6591  87.4221 14.98325013 31423,6950.208,96.107,574.176,569.971,0.0
55942.0,STARLINK-5917,PAYLOAD,2023-10-04 13:55:30,14.98332647,0.000304,70.0015,1.0167,270.7267,89.3543,0.00017008,1.937e-05,0.0,0 STARLINK-5917,1 55942U 23037AE  23277.58021935  .00001937  00000-0  17008-3 0  9993,2 55942  70.0015   1.0167 0003040 270.7267  89.3543 14.98332647 31107,6950.185,96.107,574.163,569.937,0.0
55942.0,STARLINK-5917,PAYLOAD,2023-10-04 15:31:38,14.98334404,0.0002998,70.0016,0.8485,270.5475,89.534,0.0001886,2.158e-05,0.0,0 STARLINK-5917,1 55942U 23037AE  23277.64697757  .00002158  00000-0  18860-3 0  9994,2 55942  70.0016   0.8485 0002998 270.5475  89.5340 14.98334404 31456,6950.179,96.107,574.128,569.961,0.0
55942.0,STARLINK-5917,PAYLOAD,2023-10-05 09:09:08,14.98325974,0.0002772,70.0022,358.9973,269.0685,91.0157,4.2727e-05,4.17e-06,0.0,0 STARLINK-5917,1 55942U 23037AE  23278.38134571  .00000417  00000-0  42727-4 0  9992,2 55942  70.0022 358.9973 0002772 269.0685  91.0157 14.98325974 31566,6950.205,96.107,573.997,570.144,0.0
